{
    "links": {
        "self": "http://www.neowsapp.com/rest/v1/neo/3724053?api_key=iIulBulltgU6a56xZRHN4H3l9WmuAYTsLGpBGhQ2"
    },
    "id": "3724053",
    "neo_reference_id": "3724053",
    "name": "(2015 NY9)",
    "designation": "2015 NY9",
    "nasa_jpl_url": "http://ssd.jpl.nasa.gov/sbdb.cgi?sstr=3724053",
    "absolute_magnitude_h": 23.4,
    "estimated_diameter": {
        "kilometers": {
            "estimated_diameter_min": 0.0555334912,
            "estimated_diameter_max": 0.1241766613
        },
        "meters": {
            "estimated_diameter_min": 55.5334911581,
            "estimated_diameter_max": 124.1766612574
        },
        "miles": {
            "estimated_diameter_min": 0.0345069009,
            "estimated_diameter_max": 0.0771597762
        },
        "feet": {
            "estimated_diameter_min": 182.1964991311,
            "estimated_diameter_max": 407.4037573197
        }
    },
    "is_potentially_hazardous_asteroid": false,
    "close_approach_data": [
        {
            "close_approach_date": "2015-06-22",
            "close_approach_date_full": "2015-Jun-22 09:54",
            "epoch_date_close_approach": 1434966840000,
            "relative_velocity": {
                "kilometers_per_second": "4.8139908809",
                "kilometers_per_hour": "17330.3671711861",
                "miles_per_hour": "10768.4162014517"
            },
            "miss_distance": {
                "astronomical": "0.1864843936",
                "lunar": "72.5424291104",
                "kilometers": "27897668.070801632",
                "miles": "17334807.1135092416"
            },
            "orbiting_body": "Earth"
        }
    ],
    "orbital_data": {
        "orbit_id": "4",
        "orbit_determination_date": "2017-04-06 08:32:49",
        "first_observation_date": "2015-07-09",
        "last_observation_date": "2015-07-21",
        "data_arc_in_days": 12,
        "observations_used": 18,
        "orbit_uncertainty": "7",
        "minimum_orbit_intersection": ".156523",
        "jupiter_tisserand_invariant": "3.844",
        "epoch_osculation": "2459000.5",
        "eccentricity": ".3855816228950035",
        "semi_major_axis": "1.904142217466862",
        "inclination": "5.217043403695902",
        "ascending_node_longitude": "285.0070708654888",
        "orbital_period": "959.72652921768",
        "perihelion_distance": "1.169939971033098",
        "perihelion_argument": "341.5530180598048",
        "aphelion_distance": "2.638344463900625",
        "perihelion_time": "2459117.069034631821",
        "mean_anomaly": "316.2741560331116",
        "mean_motion": ".3751068549636255",
        "equinox": "J2000",
        "orbit_class": {
            "orbit_class_type": "AMO",
            "orbit_class_description": "Near-Earth asteroid orbits similar to that of 1221 Amor",
            "orbit_class_range": "1.017 AU < q (perihelion) < 1.3 AU"
        }
    },
    "is_sentry_object": false
}